{
  "norad_id": 58654,
  "name": "BEIDOU-3 M28",
  "history": [
    {
      "epoch": "2026-03-28T05:14:45.000960",
      "apogee_km": 21542.089636548277,
      "perigee_km": 21514.28321775899,
      "latitude_deg": -18.829413250537176,
      "longitude_deg": 66.3833344001323,
      "semi_major_axis_km": 27906.323427153635,
      "eccentricity": 0.00049821,
      "inclination_deg": 55.6833,
      "raan_deg": 65.0329,
      "arg_perigee_deg": 311.8055,
      "mean_anomaly_deg": 48.1461,
      "mean_motion_rev_day": 1.8622965
    }
  ]
}