BEIDOU-3 M28 (C50)      
1 58654U 23207A   26087.21857640 -.00000005  00000+0  00000+0 0  9992
2 58654  55.6833  65.0329 0004982 311.8055  48.1461  1.86229650 15336
